NORAD_CAT_ID,OBJECT_NAME,OBJECT_TYPE,EPOCH,MEAN_MOTION,ECCENTRICITY,INCLINATION,RA_OF_ASC_NODE,ARG_OF_PERICENTER,MEAN_ANOMALY,BSTAR,MEAN_MOTION_DOT,MEAN_MOTION_DDOT,TLE_LINE0,TLE_LINE1,TLE_LINE2,SEMIMAJOR_AXIS,PERIOD,APOGEE,PERIGEE,DECAYED
52096.0,STARLINK-3717,PAYLOAD,2023-11-04 18:09:47,15.08843531,0.0001843,53.2182,321.5523,83.1426,276.9776,7.4841e-05,9.03e-06,0.0,0 STARLINK-3717,1 52096U 22029J   23308.75680147  .00000903  00000-0  74841-4 0  9991,2 52096  53.2182 321.5523 0001843  83.1426 276.9776 15.08843531 91569,6917.87,95.437,541.01,538.46,0.0
52096.0,STARLINK-3717,PAYLOAD,2023-11-05 00:31:20,15.08841171,0.00019,53.2177,320.3668,83.5652,276.5556,0.00018201,2.61e-05,0.0,0 STARLINK-3717,1 52096U 22029J   23309.02176449  .00002610  00000-0  18201-3 0  9991,2 52096  53.2177 320.3668 0001900  83.5652 276.5556 15.08841171 91604,6917.877,95.437,541.056,538.427,0.0
52096.0,STARLINK-3717,PAYLOAD,2023-11-05 08:28:16,15.08843845,0.0002053,53.2173,318.8789,86.8013,273.3214,0.00020933,3.045e-05,0.0,0 STARLINK-3717,1 52096U 22029J   23309.35296388  .00003045  00000-0  20933-3 0  9990,2 52096  53.2173 318.8789 0002053  86.8013 273.3214 15.08843845 91654,6917.869,95.437,541.154,538.313,0.0
52096.0,STARLINK-3717,PAYLOAD,2023-11-05 18:00:34,15.08842064,0.0001904,53.217,317.0952,76.0906,284.0298,0.00013462,1.855e-05,0.0,0 STARLINK-3717,1 52096U 22029J   23309.75040455  .00001855  00000-0  13462-3 0  9992,2 52096  53.2170 317.0952 0001904  76.0906 284.0298 15.08842064 91710,6917.874,95.437,541.056,538.422,0.0
52096.0,STARLINK-3717,PAYLOAD,2023-11-06 06:43:38,15.08860891,0.0001559,53.2155,314.7158,83.1229,276.9941,0.0004237,6.465e-05,0.0,0 STARLINK-3717,1 52096U 22029J   23310.28031185  .00006465  00000-0  42370-3 0  9994,2 52096  53.2155 314.7158 0001559  83.1229 276.9941 15.08860891 91799,6917.817,95.436,540.76,538.603,0.0
52096.0,STARLINK-3717,PAYLOAD,2023-11-06 17:51:21,15.08845624,0.0002047,53.217,312.6347,75.6756,284.4463,0.00010163,1.33e-05,0.0,0 STARLINK-3717,1 52096U 22029J   23310.74399844  .00001330  00000-0  10163-3 0  9995,2 52096  53.2170 312.6347 0002047  75.6756 284.4463 15.08845624 91865,6917.863,95.437,541.144,538.312,0.0
52096.0,STARLINK-3717,PAYLOAD,2023-11-06 22:37:32,15.08799174,0.0001477,53.2173,311.7429,80.1285,279.9874,-0.00096532,-0.00015601,0.0,0 STARLINK-3717,1 52096U 22029J   23310.94273181 -.00015601  00000-0 -96532-3 0  9994,2 52096  53.2173 311.7429 0001477  80.1285 279.9874 15.08799174 91899,6918.005,95.44,540.892,538.848,0.0
52096.0,STARLINK-3717,PAYLOAD,2023-11-07 09:45:14,15.08806967,0.0001512,53.216,309.6554,116.7769,243.3378,-0.00046282,-7.639e-05,0.0,0 STARLINK-3717,1 52096U 22029J   23311.40641716 -.00007639  00000-0 -46282-3 0  9998,2 52096  53.2160 309.6554 0001512 116.7769 243.3378 15.08806967 91964,6917.981,95.44,540.892,538.8,0.0
52096.0,STARLINK-3717,PAYLOAD,2023-11-08 03:14:29,15.08824651,0.0001517,53.2172,306.3925,52.7321,307.3809,0.00027796,4.137e-05,0.0,0 STARLINK-3717,1 52096U 22029J   23312.13506696  .00004137  00000-0  27796-3 0  9993,2 52096  53.2172 306.3925 0001517  52.7321 307.3809 15.08824651 92074,6917.927,95.439,540.842,538.743,0.0
52096.0,STARLINK-3717,PAYLOAD,2023-11-08 09:36:02,15.08837787,0.0001673,53.2172,305.1959,93.3874,266.7309,0.00064302,9.96e-05,0.0,0 STARLINK-3717,1 52096U 22029J   23312.40002424  .00009960  00000-0  64302-3 0  9996,2 52096  53.2172 305.1959 0001673  93.3874 266.7309 15.08837787 92117,6917.887,95.438,540.91,538.595,0.0
52096.0,STARLINK-3717,PAYLOAD,2023-11-09 06:16:02,15.08869823,0.0001422,53.216,301.3306,81.5456,278.5697,0.00084526,0.00013201,0.0,0 STARLINK-3717,1 52096U 22029J   23313.26113473  .00013201  00000-0  84526-3 0  9991,2 52096  53.2160 301.3306 0001422  81.5456 278.5697 15.08869823 92246,6917.789,95.436,540.638,538.671,0.0
52096.0,STARLINK-3717,PAYLOAD,2023-11-09 15:48:20,15.08860645,0.0001472,53.2163,299.5488,92.0068,268.1093,0.00038598,5.864e-05,0.0,0 STARLINK-3717,1 52096U 22029J   23313.65857057  .00005864  00000-0  38598-3 0  9991,2 52096  53.2163 299.5488 0001472  92.0068 268.1093 15.08860645 92304,6917.817,95.436,540.701,538.664,0.0
52096.0,STARLINK-3717,PAYLOAD,2023-11-10 02:56:02,15.08850638,0.0001228,53.216,297.4657,84.964,275.1492,3.5727e-06,-2.31e-06,0.0,0 STARLINK-3717,1 52096U 22029J   23314.12224986 -.00000231  00000-0  35727-5 0  9990,2 52096  53.2160 297.4657 0001228  84.9640 275.1492 15.08850638 92370,6917.848,95.437,540.562,538.863,0.0
52096.0,STARLINK-3717,PAYLOAD,2023-11-10 09:17:34,15.08857014,0.0001165,53.2159,296.2783,89.0529,271.0597,0.00051251,7.882e-05,0.0,0 STARLINK-3717,1 52096U 22029J   23314.38720656  .00007882  00000-0  51251-3 0  9999,2 52096  53.2159 296.2783 0001165  89.0529 271.0597 15.08857014 92418,6917.828,95.436,540.499,538.887,0.0
52096.0,STARLINK-3717,PAYLOAD,2023-11-10 15:39:07,15.0884481,0.0001019,53.215,295.0857,68.1025,292.0075,0.00018608,2.675e-05,0.0,0 STARLINK-3717,1 52096U 22029J   23314.65216787  .00002675  00000-0  18608-3 0  9998,2 52096  53.2150 295.0857 0001019  68.1025 292.0075 15.08844810 92453,6917.866,95.437,540.436,539.026,0.0
52096.0,STARLINK-3717,PAYLOAD,2023-11-11 02:46:49,15.08840567,0.0001161,53.2155,293.0056,78.9076,281.2046,-7.1037e-05,-1.418e-05,0.0,0 STARLINK-3717,1 52096U 22029J   23315.11584940 -.00001418  00000-0 -71037-4 0  9991,2 52096  53.2155 293.0056 0001161  78.9076 281.2046 15.08840567 92521,6917.879,95.438,540.547,538.94,0.0
52096.0,STARLINK-3717,PAYLOAD,2023-11-11 07:32:58,15.08848569,0.0001386,53.217,292.1128,77.6469,282.4678,6.6203e-05,7.66e-06,0.0,0 STARLINK-3717,1 52096U 22029J   23315.31456706  .00000766  00000-0  66203-4 0  9993,2 52096  53.2170 292.1128 0001386  77.6469 282.4678 15.08848569 92556,6917.854,95.437,540.678,538.76,0.0
52096.0,STARLINK-3717,PAYLOAD,2023-11-11 15:29:54,15.08847223,0.0001352,53.2168,290.6259,79.5894,280.525,9.4584e-05,1.218e-05,0.0,0 STARLINK-3717,1 52096U 22029J   23315.64576716  .00001218  00000-0  94584-4 0  9999,2 52096  53.2168 290.6259 0001352  79.5894 280.5250 15.08847223 92604,6917.858,95.437,540.659,538.788,0.0
52096.0,STARLINK-3717,PAYLOAD,2023-11-12 02:37:36,15.08830563,0.0001363,53.2175,288.5456,82.1152,277.9995,-9.5146e-05,-1.801e-05,0.0,0 STARLINK-3717,1 52096U 22029J   23316.10945482 -.00001801  00000-0 -95146-4 0  9996,2 52096  53.2175 288.5456 0001363  82.1152 277.9995 15.08830563 92678,6917.909,95.438,540.717,538.831,0.0
52096.0,STARLINK-3717,PAYLOAD,2023-11-12 07:23:46,15.0883966,0.0001367,53.2167,287.6532,83.9715,276.1433,2.8225e-05,1.61e-06,0.0,0 STARLINK-3717,1 52096U 22029J   23316.30817276  .00000161  00000-0  28225-4 0  9997,2 52096  53.2167 287.6532 0001367  83.9715 276.1433 15.08839660 92701,6917.881,95.438,540.692,538.801,0.0
52096.0,STARLINK-3717,PAYLOAD,2023-11-12 21:42:14,15.08838119,0.0001348,53.2168,284.9782,86.0224,274.0923,0.0001207,1.633e-05,0.0,0 STARLINK-3717,1 52096U 22029J   23316.90433525  .00001633  00000-0  12070-3 0  9999,2 52096  53.2168 284.9782 0001348  86.0224 274.0923 15.08838119 92795,6917.886,95.438,540.684,538.819,0.0
52096.0,STARLINK-3717,PAYLOAD,2023-11-13 07:14:32,15.08855066,0.0001422,53.2169,283.1934,99.9584,260.1568,0.00028778,4.297e-05,0.0,0 STARLINK-3717,1 52096U 22029J   23317.30176732  .00004297  00000-0  28778-3 0  9999,2 52096  53.2169 283.1934 0001422  99.9584 260.1568 15.08855066 92859,6917.834,95.437,540.683,538.716,0.0
52096.0,STARLINK-3717,PAYLOAD,2023-11-13 15:11:29,15.0883784,0.0001863,53.2188,281.7066,82.8888,277.2316,7.0063e-05,8.27e-06,0.0,0 STARLINK-3717,1 52096U 22029J   23317.63297636  .00000827  00000-0  70063-4 0  9992,2 52096  53.2188 281.7066 0001863  82.8888 277.2316 15.08837840 92903,6917.887,95.438,541.041,538.463,0.0
52096.0,STARLINK-3717,PAYLOAD,2023-11-14 07:05:20,15.08845093,0.0001469,53.2173,278.7301,93.7649,266.3511,0.00020278,2.941e-05,0.0,0 STARLINK-3717,1 52096U 22029J   23318.29537295  .00002941  00000-0  20278-3 0  9994,2 52096  53.2173 278.7301 0001469  93.7649 266.3511 15.08845093 93000,6917.865,95.437,540.746,538.714,0.0
52096.0,STARLINK-3717,PAYLOAD,2023-11-14 15:02:16,15.0884026,0.0001641,53.2179,277.2437,101.8581,258.2595,0.00012387,1.684e-05,0.0,0 STARLINK-3717,1 52096U 22029J   23318.62657534  .00001684  00000-0  12387-3 0  9995,2 52096  53.2179 277.2437 0001641 101.8581 258.2595 15.08840260 93056,6917.88,95.438,540.88,538.609,0.0
52096.0,STARLINK-3717,PAYLOAD,2023-11-15 02:09:57,15.08846523,0.0001576,53.2182,275.1622,106.4728,253.6437,7.8796e-05,9.66e-06,0.0,0 STARLINK-3717,1 52096U 22029J   23319.09025241  .00000966  00000-0  78796-4 0  9990,2 52096  53.2182 275.1622 0001576 106.4728 253.6437 15.08846523 93124,6917.86,95.437,540.816,538.635,0.0
52096.0,STARLINK-3717,PAYLOAD,2023-11-16 00:25:22,15.08840255,0.0001445,53.2182,270.9997,94.7988,265.317,0.0001187,1.602e-05,0.0,0 STARLINK-3717,1 52096U 22029J   23320.01761632  .00001602  00000-0  11870-3 0  9992,2 52096  53.2182 270.9997 0001445  94.7988 265.3170 15.08840255 93269,6917.88,95.438,540.744,538.745,0.0
52096.0,STARLINK-3717,PAYLOAD,2023-11-16 06:46:55,15.08825655,0.0001704,53.2185,269.8098,97.3477,262.7708,0.00052115,8.013e-05,0.0,0 STARLINK-3717,1 52096U 22029J   23320.28258401  .00008013  00000-0  52115-3 0  9996,2 52096  53.2185 269.8098 0001704  97.3477 262.7708 15.08825655 93301,6917.924,95.438,540.968,538.61,0.0
52096.0,STARLINK-3717,PAYLOAD,2023-11-17 03:26:54,15.08846909,0.0001347,53.2184,265.9472,92.446,267.6687,0.00013262,1.824e-05,0.0,0 STARLINK-3717,1 52096U 22029J   23321.14369063  .00001824  00000-0  13262-3 0  9992,2 52096  53.2184 265.9472 0001347  92.4460 267.6687 15.08846909 93433,6917.859,95.437,540.656,538.792,0.0
52096.0,STARLINK-3717,PAYLOAD,2023-11-17 12:59:13,15.08844113,0.0001058,53.2184,264.1608,84.4357,275.6756,0.00013595,1.877e-05,0.0,0 STARLINK-3717,1 52096U 22029J   23321.54113090  .00001877  00000-0  13595-3 0  9990,2 52096  53.2184 264.1608 0001058  84.4357 275.6756 15.08844113 93497,6917.868,95.437,540.465,539.001,0.0
